KUIPER-00053            
1 64513U 25134P   26018.46643816  .00002437  00000+0  34829-3 0  9993
2 64513  51.9021  85.1793 0000416  18.3079 341.7899 14.79961049 32771
KUIPER-00054            
1 64514U 25134Q   26018.53921358  .00000609  00000+0  10905-3 0  9990
2 64514  51.8995  79.8381 0004366 148.6636 211.4588 14.79932291 32852
KUIPER-00055            
1 64515U 25134R   26018.46295177  .00010761  00000+0  52391-3 0  9991
2 64515  51.8930  56.0822 0002109   7.6618 352.4393 15.18863727 33184
KUIPER-00056            
1 64516U 25134S   26018.46465767  .00003760  00000+0  52200-3 0  9996
2 64516  51.9033  86.2248 0001400 152.6932 207.4104 14.79933016 32767
KUIPER-00057            
1 64517U 25134T   26018.45664302  .00003821  00000+0  52969-3 0  9992
2 64517  51.9003  93.7399 0008835 109.2880 250.9039 14.79949159 32657
KUIPER-00058            
1 64518U 25134U   26018.46363694  .00004536  00000+0  62357-3 0  9990
2 64518  51.9007  87.6297 0003502 159.6888 200.4215 14.79942161 32746
KUIPER-00059            
1 64519U 25134V   26018.53661884  .00004581  00000+0  62921-3 0  9998
2 64519  51.9009  82.3636 0001626 349.0320  11.0607 14.79951988 32826
KUIPER-00060            
1 64520U 25134W   26018.53484021 -.00001373  00000+0 -15112-3 0  9994
2 64520  51.9034  83.4159 0001659 214.1490 145.9366 14.79942778 32796
