<?xml version="1.0" encoding="UTF-8"?>
<ndm xmlns:xsi="http://www.w3.org/2001/XMLSchema-instance" xsi:noNamespaceSchemaLocation="https://sanaregistry.org/r/ndmxml_unqualified/ndmxml-2.0.0-master-2.0.xsd">
<omm id="CCSDS_OMM_VERS" version="2.0">
<header><CREATION_DATE/><ORIGINATOR/></header><body><segment><metadata><OBJECT_NAME>KUIPER-00053</OBJECT_NAME><OBJECT_ID>2025-134P</OBJECT_ID><CENTER_NAME>EARTH</CENTER_NAME><REF_FRAME>TEME</REF_FRAME><TIME_SYSTEM>UTC</TIME_SYSTEM><MEAN_ELEMENT_THEORY>SGP4</MEAN_ELEMENT_THEORY></metadata><data><meanElements><EPOCH>2026-01-18T11:11:40.257024</EPOCH><MEAN_MOTION>14.79961049</MEAN_MOTION><ECCENTRICITY>.00004168</ECCENTRICITY><INCLINATION>51.9021</INCLINATION><RA_OF_ASC_NODE>85.1793</RA_OF_ASC_NODE><ARG_OF_PERICENTER>18.3079</ARG_OF_PERICENTER><MEAN_ANOMALY>341.7899</MEAN_ANOMALY></meanElements><tleParameters><EPHEMERIS_TYPE>0</EPHEMERIS_TYPE><CLASSIFICATION_TYPE>U</CLASSIFICATION_TYPE><NORAD_CAT_ID>64513</NORAD_CAT_ID><ELEMENT_SET_NO>999</ELEMENT_SET_NO><REV_AT_EPOCH>3277</REV_AT_EPOCH><BSTAR>.34828758E-3</BSTAR><MEAN_MOTION_DOT>.2437E-4</MEAN_MOTION_DOT><MEAN_MOTION_DDOT>0</MEAN_MOTION_DDOT></tleParameters></data></segment></body></omm>
<omm id="CCSDS_OMM_VERS" version="2.0">
<header><CREATION_DATE/><ORIGINATOR/></header><body><segment><metadata><OBJECT_NAME>KUIPER-00054</OBJECT_NAME><OBJECT_ID>2025-134Q</OBJECT_ID><CENTER_NAME>EARTH</CENTER_NAME><REF_FRAME>TEME</REF_FRAME><TIME_SYSTEM>UTC</TIME_SYSTEM><MEAN_ELEMENT_THEORY>SGP4</MEAN_ELEMENT_THEORY></metadata><data><meanElements><EPOCH>2026-01-18T12:56:28.053312</EPOCH><MEAN_MOTION>14.79932291</MEAN_MOTION><ECCENTRICITY>.0004366</ECCENTRICITY><INCLINATION>51.8995</INCLINATION><RA_OF_ASC_NODE>79.8381</RA_OF_ASC_NODE><ARG_OF_PERICENTER>148.6636</ARG_OF_PERICENTER><MEAN_ANOMALY>211.4588</MEAN_ANOMALY></meanElements><tleParameters><EPHEMERIS_TYPE>0</EPHEMERIS_TYPE><CLASSIFICATION_TYPE>U</CLASSIFICATION_TYPE><NORAD_CAT_ID>64514</NORAD_CAT_ID><ELEMENT_SET_NO>999</ELEMENT_SET_NO><REV_AT_EPOCH>3285</REV_AT_EPOCH><BSTAR>.10905274E-3</BSTAR><MEAN_MOTION_DOT>.609E-5</MEAN_MOTION_DOT><MEAN_MOTION_DDOT>0</MEAN_MOTION_DDOT></tleParameters></data></segment></body></omm>
<omm id="CCSDS_OMM_VERS" version="2.0">
<header><CREATION_DATE/><ORIGINATOR/></header><body><segment><metadata><OBJECT_NAME>KUIPER-00055</OBJECT_NAME><OBJECT_ID>2025-134R</OBJECT_ID><CENTER_NAME>EARTH</CENTER_NAME><REF_FRAME>TEME</REF_FRAME><TIME_SYSTEM>UTC</TIME_SYSTEM><MEAN_ELEMENT_THEORY>SGP4</MEAN_ELEMENT_THEORY></metadata><data><meanElements><EPOCH>2026-01-18T11:06:39.032928</EPOCH><MEAN_MOTION>15.18863727</MEAN_MOTION><ECCENTRICITY>.00021092</ECCENTRICITY><INCLINATION>51.8930</INCLINATION><RA_OF_ASC_NODE>56.0822</RA_OF_ASC_NODE><ARG_OF_PERICENTER>7.6618</ARG_OF_PERICENTER><MEAN_ANOMALY>352.4393</MEAN_ANOMALY></meanElements><tleParameters><EPHEMERIS_TYPE>0</EPHEMERIS_TYPE><CLASSIFICATION_TYPE>U</CLASSIFICATION_TYPE><NORAD_CAT_ID>64515</NORAD_CAT_ID><ELEMENT_SET_NO>999</ELEMENT_SET_NO><REV_AT_EPOCH>3318</REV_AT_EPOCH><BSTAR>.52391273E-3</BSTAR><MEAN_MOTION_DOT>.10761E-3</MEAN_MOTION_DOT><MEAN_MOTION_DDOT>0</MEAN_MOTION_DDOT></tleParameters></data></segment></body></omm>
<omm id="CCSDS_OMM_VERS" version="2.0">
<header><CREATION_DATE/><ORIGINATOR/></header><body><segment><metadata><OBJECT_NAME>KUIPER-00056</OBJECT_NAME><OBJECT_ID>2025-134S</OBJECT_ID><CENTER_NAME>EARTH</CENTER_NAME><REF_FRAME>TEME</REF_FRAME><TIME_SYSTEM>UTC</TIME_SYSTEM><MEAN_ELEMENT_THEORY>SGP4</MEAN_ELEMENT_THEORY></metadata><data><meanElements><EPOCH>2026-01-18T11:09:06.422688</EPOCH><MEAN_MOTION>14.79933016</MEAN_MOTION><ECCENTRICITY>.00014002</ECCENTRICITY><INCLINATION>51.9033</INCLINATION><RA_OF_ASC_NODE>86.2248</RA_OF_ASC_NODE><ARG_OF_PERICENTER>152.6932</ARG_OF_PERICENTER><MEAN_ANOMALY>207.4104</MEAN_ANOMALY></meanElements><tleParameters><EPHEMERIS_TYPE>0</EPHEMERIS_TYPE><CLASSIFICATION_TYPE>U</CLASSIFICATION_TYPE><NORAD_CAT_ID>64516</NORAD_CAT_ID><ELEMENT_SET_NO>999</ELEMENT_SET_NO><REV_AT_EPOCH>3276</REV_AT_EPOCH><BSTAR>.52200242E-3</BSTAR><MEAN_MOTION_DOT>.376E-4</MEAN_MOTION_DOT><MEAN_MOTION_DDOT>0</MEAN_MOTION_DDOT></tleParameters></data></segment></body></omm>
<omm id="CCSDS_OMM_VERS" version="2.0">
<header><CREATION_DATE/><ORIGINATOR/></header><body><segment><metadata><OBJECT_NAME>KUIPER-00057</OBJECT_NAME><OBJECT_ID>2025-134T</OBJECT_ID><CENTER_NAME>EARTH</CENTER_NAME><REF_FRAME>TEME</REF_FRAME><TIME_SYSTEM>UTC</TIME_SYSTEM><MEAN_ELEMENT_THEORY>SGP4</MEAN_ELEMENT_THEORY></metadata><data><meanElements><EPOCH>2026-01-18T10:57:33.956928</EPOCH><MEAN_MOTION>14.79949159</MEAN_MOTION><ECCENTRICITY>.00088355</ECCENTRICITY><INCLINATION>51.9003</INCLINATION><RA_OF_ASC_NODE>93.7399</RA_OF_ASC_NODE><ARG_OF_PERICENTER>109.2880</ARG_OF_PERICENTER><MEAN_ANOMALY>250.9039</MEAN_ANOMALY></meanElements><tleParameters><EPHEMERIS_TYPE>0</EPHEMERIS_TYPE><CLASSIFICATION_TYPE>U</CLASSIFICATION_TYPE><NORAD_CAT_ID>64517</NORAD_CAT_ID><ELEMENT_SET_NO>999</ELEMENT_SET_NO><REV_AT_EPOCH>3265</REV_AT_EPOCH><BSTAR>.52969017E-3</BSTAR><MEAN_MOTION_DOT>.3821E-4</MEAN_MOTION_DOT><MEAN_MOTION_DDOT>0</MEAN_MOTION_DDOT></tleParameters></data></segment></body></omm>
<omm id="CCSDS_OMM_VERS" version="2.0">
<header><CREATION_DATE/><ORIGINATOR/></header><body><segment><metadata><OBJECT_NAME>KUIPER-00058</OBJECT_NAME><OBJECT_ID>2025-134U</OBJECT_ID><CENTER_NAME>EARTH</CENTER_NAME><REF_FRAME>TEME</REF_FRAME><TIME_SYSTEM>UTC</TIME_SYSTEM><MEAN_ELEMENT_THEORY>SGP4</MEAN_ELEMENT_THEORY></metadata><data><meanElements><EPOCH>2026-01-18T11:07:38.231616</EPOCH><MEAN_MOTION>14.79942161</MEAN_MOTION><ECCENTRICITY>.00035025</ECCENTRICITY><INCLINATION>51.9007</INCLINATION><RA_OF_ASC_NODE>87.6297</RA_OF_ASC_NODE><ARG_OF_PERICENTER>159.6888</ARG_OF_PERICENTER><MEAN_ANOMALY>200.4215</MEAN_ANOMALY></meanElements><tleParameters><EPHEMERIS_TYPE>0</EPHEMERIS_TYPE><CLASSIFICATION_TYPE>U</CLASSIFICATION_TYPE><NORAD_CAT_ID>64518</NORAD_CAT_ID><ELEMENT_SET_NO>999</ELEMENT_SET_NO><REV_AT_EPOCH>3274</REV_AT_EPOCH><BSTAR>.62357196E-3</BSTAR><MEAN_MOTION_DOT>.4536E-4</MEAN_MOTION_DOT><MEAN_MOTION_DDOT>0</MEAN_MOTION_DDOT></tleParameters></data></segment></body></omm>
<omm id="CCSDS_OMM_VERS" version="2.0">
<header><CREATION_DATE/><ORIGINATOR/></header><body><segment><metadata><OBJECT_NAME>KUIPER-00059</OBJECT_NAME><OBJECT_ID>2025-134V</OBJECT_ID><CENTER_NAME>EARTH</CENTER_NAME><REF_FRAME>TEME</REF_FRAME><TIME_SYSTEM>UTC</TIME_SYSTEM><MEAN_ELEMENT_THEORY>SGP4</MEAN_ELEMENT_THEORY></metadata><data><meanElements><EPOCH>2026-01-18T12:52:43.867776</EPOCH><MEAN_MOTION>14.79951988</MEAN_MOTION><ECCENTRICITY>.00016268</ECCENTRICITY><INCLINATION>51.9009</INCLINATION><RA_OF_ASC_NODE>82.3636</RA_OF_ASC_NODE><ARG_OF_PERICENTER>349.0320</ARG_OF_PERICENTER><MEAN_ANOMALY>11.0607</MEAN_ANOMALY></meanElements><tleParameters><EPHEMERIS_TYPE>0</EPHEMERIS_TYPE><CLASSIFICATION_TYPE>U</CLASSIFICATION_TYPE><NORAD_CAT_ID>64519</NORAD_CAT_ID><ELEMENT_SET_NO>999</ELEMENT_SET_NO><REV_AT_EPOCH>3282</REV_AT_EPOCH><BSTAR>.62920529E-3</BSTAR><MEAN_MOTION_DOT>.4581E-4</MEAN_MOTION_DOT><MEAN_MOTION_DDOT>0</MEAN_MOTION_DDOT></tleParameters></data></segment></body></omm>
<omm id="CCSDS_OMM_VERS" version="2.0">
<header><CREATION_DATE/><ORIGINATOR/></header><body><segment><metadata><OBJECT_NAME>KUIPER-00060</OBJECT_NAME><OBJECT_ID>2025-134W</OBJECT_ID><CENTER_NAME>EARTH</CENTER_NAME><REF_FRAME>TEME</REF_FRAME><TIME_SYSTEM>UTC</TIME_SYSTEM><MEAN_ELEMENT_THEORY>SGP4</MEAN_ELEMENT_THEORY></metadata><data><meanElements><EPOCH>2026-01-18T12:50:10.194144</EPOCH><MEAN_MOTION>14.79942778</MEAN_MOTION><ECCENTRICITY>.0001659</ECCENTRICITY><INCLINATION>51.9034</INCLINATION><RA_OF_ASC_NODE>83.4159</RA_OF_ASC_NODE><ARG_OF_PERICENTER>214.1490</ARG_OF_PERICENTER><MEAN_ANOMALY>145.9366</MEAN_ANOMALY></meanElements><tleParameters><EPHEMERIS_TYPE>0</EPHEMERIS_TYPE><CLASSIFICATION_TYPE>U</CLASSIFICATION_TYPE><NORAD_CAT_ID>64520</NORAD_CAT_ID><ELEMENT_SET_NO>999</ELEMENT_SET_NO><REV_AT_EPOCH>3279</REV_AT_EPOCH><BSTAR>-.15112084E-3</BSTAR><MEAN_MOTION_DOT>-.1373E-4</MEAN_MOTION_DOT><MEAN_MOTION_DDOT>0</MEAN_MOTION_DDOT></tleParameters></data></segment></body></omm>

</ndm>
